SES-12                  
1 43488U 18049A   24113.41887878 -.00000260  00000+0  00000+0 0  9998
2 43488   0.0077  94.4955 0001532 222.1080 140.1568  1.00271459 21530
FENGYUN 2H              
1 43491U 18050A   24113.41574597 -.00000119  00000+0  00000+0 0  9998
2 43491   0.9983  87.5736 0001188   9.3338 342.9597  1.00274723 21639
BEIDOU-2 IGSO-7         
1 43539U 18057A   24112.71396036 -.00000082  00000+0  00000+0 0  9999
2 43539  55.1338 169.8616 0073914 232.8384 177.6530  1.00270595 21250
TELSTAR 19V             
1 43562U 18059A   24112.88641311 -.00000272  00000+0  00000+0 0  9995
2 43562   0.0185 194.7770 0001688 250.0966  21.6780  1.00272168 21253
TELKOM 4 (MERAH PUTIH)  
1 43587U 18064A   24112.92035192 -.00000337  00000+0  00000+0 0  9999
2 43587   0.0136 246.3093 0001532 169.9562 233.5365  1.00271733 20996
TELSTAR 18V             
1 43611U 18069A   24112.92635649 -.00000286  00000+0  00000+0 0  9998
2 43611   0.0172 238.8410 0002028 160.1422 282.9737  1.00268889 20744
AZERSPACE 2 (IS-38)     
1 43632U 18074A   24112.93799240  .00000144  00000+0  00000+0 0  9998
2 43632   0.0201 234.0215 0001537 162.2566 197.0049  1.00270412 20564
HORIZONS-3E             
1 43633U 18074B   24113.11716095 -.00000023  00000+0  00000+0 0  9994
2 43633   0.0177 223.4546 0001009 102.5524  95.8092  1.00269709 20448
AEHF-4 (USA 288)        
1 43651U 18079A   24110.22901653 -.00000280  00000+0  00000+0 0  9999
2 43651   1.7519 330.0629 0003496  39.5322 213.0618  1.00268020 20386
BEIDOU-3 G1             
1 43683U 18085A   24112.99823715 -.00000267  00000+0  00000+0 0  9994
2 43683   2.0537 111.8058 0003950 342.3459 255.8416  1.00271329 20170
GSAT-29                 
1 43698U 18089A   24112.90982218  .00000093  00000+0  00000+0 0  9995
2 43698   0.0054 214.6773 0000525 211.6085 166.7092  1.00273694 19908
ES'HAIL 2               
1 43700U 18090A   24112.90399167  .00000152  00000+0  00000+0 0  9992
2 43700   0.0113 233.4118 0001391 182.3097 145.9679  1.00270322 19791
GEO-KOMPSAT-2A          
1 43823U 18100A   24113.42549250 -.00000334  00000+0  00000+0 0  9991
2 43823   0.0190  83.9324 0002329 347.2802  61.1937  1.00268223 19789
GSAT-11                 
1 43824U 18100B   24113.05680333 -.00000069  00000+0  00000+0 0  9994
2 43824   0.0627 267.9803 0007236 157.4604 239.6089  1.00272547 19744
GSAT-7A                 
1 43864U 18105A   24112.91138859  .00000034  00000+0  00000+0 0  9999
2 43864   0.0667  90.6449 0002407 298.4855 212.1986  1.00271307 19574
COSMOS 2533             
1 43867U 18107A   24113.12755269 -.00000031  00000+0  00000+0 0  9996
2 43867   0.0481  82.6532 0000399  31.5223 212.4199  1.00274153 19535
TJS-3                   
1 43874U 18110A   24113.75160147  .00000013  00000+0  00000+0 0  9991
2 43874   0.5102  88.8639 0000556 265.3570 300.5718  1.00270542 19603
CHINASAT 2D (ZX 2D)     
1 43920U 19001A   24112.92479007 -.00000330  00000+0  00000+0 0  9992
2 43920   0.0160 252.8687 0001036 344.8110  75.7204  1.00267050 46192
HELLAS-SAT 4 & SGS-1    
1 44034U 19007A   24113.12146111  .00000161  00000+0  00000+0 0  9996
2 44034   0.0707 122.1306 0003942  14.7315 156.5765  1.00275490 19468
GSAT-31                 
1 44035U 19007B   24113.19482115  .00000134  00000+0  00000+0 0  9991
2 44035   0.0627  80.2991 0002811 247.4062   1.0390  1.00272430 19078
NUSANTARA SATU          
1 44048U 19009A   24112.97896660 -.00000226  00000+0  00000+0 0  9999
2 44048   0.0371 126.4274 0003022 327.4943 255.0440  1.00271190 18884
CHINASAT 6C (ZX 6C)     
1 44067U 19012A   24113.42592762 -.00000325  00000+0  00000+0 0  9991
2 44067   0.1203  92.2770 0001111 304.0258  98.4536  1.00271562 18853
WGS 10 (USA 291)        
1 44071U 19014A   24112.55298706  .00000053  00000+0  00000+0 0  9999
2 44071   0.0149 231.9505 0000439 177.1946  60.3450  1.00270481 18749
TIANLIAN 2-01           
1 44076U 19017A   24113.12894505 -.00000098  00000+0  00000+0 0  9990
2 44076   0.0604 259.2499 0003966 118.6597 316.2241  1.00272508 18726
ARABSAT-6A              
1 44186U 19021A   24112.93243802  .00000161  00000+0  00000+0 0  9993
2 44186   0.0553 329.2594 0001974  81.4516 165.9133  1.00280291 18277
BEIDOU-3 IGSO-1         
1 44204U 19023A   24112.77808891 -.00000225  00000+0  00000+0 0  9995
2 44204  57.5637  45.8144 0019374 214.9403 348.7134  1.00266648 18453
BEIDOU-2 G8             
1 44231U 19027A   24112.92766182 -.00000238  00000+0  00000+0 0  9996
2 44231   1.8098  73.4999 0002542 175.6600  79.8216  1.00273217 18196
YAMAL 601               
1 44307U 19031A   24112.93799240  .00000128  00000+0  00000+0 0  9994
2 44307   0.0188 225.2047 0002408 166.6515 205.2979  1.00270865 18038
AT&T T-16               
1 44333U 19034A   24113.47237623 -.00000105  00000+0  00000+0 0  9994
2 44333   0.0182 258.5544 0001132 350.3940  31.2764  1.00267499 17744
EUTELSAT 7C             
1 44334U 19034B   24113.25826059  .00000057  00000+0  00000+0 0  9993
2 44334   0.0718 196.0108 0003121 182.1639 292.5982  1.00270454 18243
BEIDOU-3 IGSO-2         
1 44337U 19035A   24112.71577286 -.00000078  00000+0  00000+0 0  9996
2 44337  55.1682 165.7634 0032856 207.9822 212.6680  1.00259095 17785
COSMOS 2539             
1 44457U 19048A   24112.89702139  .00000089  00000+0  00000+0 0  9990
2 44457   0.0363  94.2567 0000347  68.7583  22.3621  1.00274275 17341
EDRS-C                  
1 44475U 19049A   24112.33036083  .00000160  00000+0  00000+0 0  9998
2 44475   0.0752 255.3237 0000797 123.5031 341.1786  1.00269917 17323
INTELSAT 39 (IS-39)     
1 44476U 19049B   24113.12598628  .00000042  00000+0  00000+0 0  9994
2 44476   0.0219 246.4779 0000517 254.0608 177.4322  1.00269502 17252
AMOS-17                 
1 44479U 19050A   24112.89702139  .00000117  00000+0  00000+0 0  9999
2 44479   0.0141 178.8356 0001686 241.2125 130.3166  1.00273330 17302
AEHF-5 (USA 292)        
1 44481U 19051A   24112.90964814  .00000086  00000+0  00000+0 0  9990
2 44481   2.8319 307.1084 0047909   4.1744 281.1744  1.00275308 17379
EUTELSAT 5 WEST B       
1 44624U 19067A   24113.25582396 -.00000034  00000+0  00000+0 0  9990
2 44624   0.0723  27.4580 0003030  11.5769 258.8655  1.00269659 16559
MEV-1                   
1 44625U 19067B   24112.32070237 -.00000196  00000+0  00000+0 0  9993
2 44625   0.0549  78.5730 0001137 336.6358 242.6313  1.00272611 16511
TJS-4                   
1 44637U 19070A   24113.13025038 -.00000161  00000+0  00000+0 0  9991
2 44637   0.0147  31.0121 0004266  31.9899 278.0757  1.00270442 16657
BEIDOU-3 IGSO-3         
1 44709U 19073A   24111.89015095 -.00000175  00000+0  00000+0 0  9992
2 44709  56.1481 289.3267 0037000 179.6590 180.2868  1.00266991 16560
TIBA-1                  
1 44800U 19080A   24113.12067789  .00000164  00000+0  00000+0 0  9994
2 44800   0.0601  11.4067 0002018  20.7256 257.4753  1.00271266 16192
INMARSAT GX5            
1 44801U 19080B   24112.89702139  .00000083  00000+0  00000+0 0  9993
2 44801   0.0551  48.3753 0001957 347.9533 148.0483  1.00273777 16229
JCSAT-18 (KACIFIC 1)    
1 44868U 19091A   24112.97896660 -.00000193  00000+0  00000+0 0  9993
2 44868   0.0194 329.8424 0000119 292.8983  90.2086  1.00271683 16213
ELEKTRO-L 3             
1 44903U 19095A   24113.12877101 -.00000088  00000+0  00000+0 0  9997
2 44903   0.0439   2.5051 0001163  37.5324 292.9800  1.00273004 15807
SHIJIAN-20 (SJ-20)      
1 44910U 19097A   24113.62832854 -.00000008  00000+0  00000+0 0  9990
2 44910   2.8978  84.5051 0004250 343.1984  77.7087  1.00272477 15811
TJS-5                   
1 44978U 20002A   24113.10952411 -.00000334  00000+0  00000+0 0  9999
2 44978   0.4440  84.5618 0003408 198.5930  74.3876  1.00277617 15819
GSAT-30                 
1 45026U 20005A   24112.88590965 -.00000158  00000+0  00000+0 0  9997
2 45026   0.0879  88.2426 0002794 354.6328 169.5013  1.00271896 15629
EUTELSAT KONNECT        
1 45027U 20005B   24113.11510845  .00000058  00000+0  00000+0 0  9992
2 45027   0.0625  83.5449 0000092 126.2245  49.5404  1.00272295 16437
JCSAT-17                
1 45245U 20013A   24112.99754097 -.00000317  00000+0  00000+0 0  9996
2 45245   5.6244 349.4860 0003416  25.3092 330.8424  1.00272038 15364
GEO-KOMPSAT-2B          
1 45246U 20013B   24113.28236584 -.00000335  00000+0  00000+0 0  9996
2 45246   0.0143 305.2374 0001084  46.5082  89.0094  1.00269466 15373
BEIDOU-3 G2             
1 45344U 20017A   24112.91478248 -.00000133  00000+0  00000+0 0  9999
2 45344   2.2509  27.3388 0001135 346.1633 246.3120  1.00271144 15371
AEHF-6 (USA 298)        
1 45465U 20022B   24112.99797608 -.00000297  00000+0  00000+0 0  9992
2 45465   4.3591 298.7451 0044975   8.6692  40.1709  1.00273741 15107
BEIDOU-3 G3             
1 45807U 20040A   24113.42201160 -.00000344  00000+0  00000+0 0  9997
2 45807   0.6919  34.1907 0005594 303.4089 135.8684  1.00273793 14209
APSTAR-6D               
1 45863U 20045A   24112.99710584 -.00000309  00000+0  00000+0 0  9991
2 45863   0.0621  79.9686 0002714 336.6455 286.8868  1.00272770 13970
KOREASAT 116            
1 45920U 20048A   24113.42314289 -.00000352  00000+0  00000+0 0  9997
2 45920   0.0147 273.2049 0000948 127.7419  78.5520  1.00274601 13757
EXPRESS 103             
1 45985U 20053A   24113.41922687 -.00000271  00000+0  00000+0 0  9990
2 45985   0.0149 254.4550 0000102 295.8350 268.0968  1.00271052 13761
EXPRESS 80              
1 45986U 20053B   24112.19512515 -.00000131  00000+0  00000+0 0  9995
2 45986   0.0197 264.7149 0001405 293.5453 161.7365  1.00271725 13733
BSAT-4B                 
1 46112U 20056A   24112.79475027 -.00000343  00000+0  00000+0 0  9997
2 46112   0.0786 109.1252 0003080 342.1449 155.0214  1.00271171 13502
MEV-2                   
1 46113U 20056B   24112.32601076 -.00000006  00000+0  00000+0 0  9998
2 46113   0.0151 216.6196 0000828 179.6195 290.0095  1.00269376 72739
